STARLINK-2450_new
1 18113C 21027X   21326.16668308 -.00004937  00000-0 -33073-3 0  3269
2 18113  53.0555  12.9923 0001645  56.9072 217.3161 15.06413056    16
STARLINK-2450_old
1 28113C 21027X   21325.14672141  .00001203  00000-0  80614-4 0  3250
2 28113  53.0560  17.5710 0001642  58.2890  81.5844 15.06397948    17
